NORAD_CAT_ID,OBJECT_NAME,OBJECT_TYPE,EPOCH,MEAN_MOTION,ECCENTRICITY,INCLINATION,RA_OF_ASC_NODE,ARG_OF_PERICENTER,MEAN_ANOMALY,BSTAR,MEAN_MOTION_DOT,MEAN_MOTION_DDOT,TLE_LINE0,TLE_LINE1,TLE_LINE2,SEMIMAJOR_AXIS,PERIOD,APOGEE,PERIGEE,DECAYED
49728.0,STARLINK-3240,PAYLOAD,2022-09-09 23:43:52,15.08844483,0.0001624,53.2161,130.455,62.852,297.2638,0.00020809,3.026e-05,0.0,0 STARLINK-3240,1 49728U 21115E   22252.98880521  .00003026  00000-0  20809-3 0  9997,2 49728  53.2161 130.4550 0001624  62.8520 297.2638 15.08844483 42653,6917.8669999999975,95.437,540.855,538.6080000000002,0.0
49728.0,STARLINK-3240,PAYLOAD,2022-09-10 15:37:44,15.08844305,0.0001647,53.2158,127.4838,87.7252,272.3928,-3.5181e-06,-3.44e-06,0.0,0 STARLINK-3240,1 49728U 21115E   22253.65121163 -.00000344  00000-0 -35181-5 0  9995,2 49728  53.2158 127.4838 0001647  87.7252 272.3928 15.08844305 43860,6917.8669999999975,95.437,540.872,538.5930000000002,0.0
49728.0,STARLINK-3240,PAYLOAD,2022-09-10 20:23:54,15.08826834,0.0001785,53.2161,126.5896,65.5706,294.5473,7.946199999999999e-05,9.76e-06,0.0,0 STARLINK-3240,1 49728U 21115E   22253.84994153  .00000976  00000-0  79462-4 0  9991,2 49728  53.2161 126.5896 0001785  65.5706 294.5473 15.08826834 42787,6917.920999999999,95.438,541.02,538.5509999999998,0.0
49728.0,STARLINK-3240,PAYLOAD,2022-09-11 02:45:27,15.088327,0.0001740999999999,53.2162,125.3992,64.7852,295.332,0.00010658,1.408e-05,0.0,0 STARLINK-3240,1 49728U 21115E   22254.11489891  .00001408  00000-0  10658-3 0  9992,2 49728  53.2162 125.3992 0001741  64.7852 295.3320 15.08832700 43934,6917.903,95.438,540.972,538.563,0.0
49728.0,STARLINK-3240,PAYLOAD,2022-09-11 20:14:40,15.0884975,0.0001771999999999,53.2162,122.1281,65.6649,294.4528,6.071600000000001e-05,6.79e-06,0.0,0 STARLINK-3240,1 49728U 21115E   22254.84352855  .00000679  00000-0  60716-4 0  9991,2 49728  53.2162 122.1281 0001772  65.6649 294.4528 15.08849750 42930,6917.851,95.437,540.941,538.49,0.0
49728.0,STARLINK-3240,PAYLOAD,2022-09-12 01:00:49,15.08852626,0.000179,53.2164,121.236,68.7852,291.3331,8.1765e-05,1.014e-05,0.0,0 STARLINK-3240,1 49728U 21115E   22255.04224506  .00001014  00000-0  81765-4 0  9996,2 49728  53.2164 121.2360 0001790  68.7852 291.3331 15.08852626 42967,6917.842,95.437,540.945,538.469,0.0
49728.0,STARLINK-3240,PAYLOAD,2022-09-12 16:54:42,15.08833924,0.0001785,53.216,118.2624,64.3946,295.7231,6.7446e-05,7.85e-06,0.0,0 STARLINK-3240,1 49728U 21115E   22255.70465713  .00000785  00000-0  67446-4 0  9990,2 49728  53.2160 118.2624 0001785  64.3946 295.7231 15.08833924 43061,6917.899,95.438,540.999,538.529,0.0
49728.0,STARLINK-3240,PAYLOAD,2022-09-13 00:51:38,15.08831344,0.000169,53.2156,116.7752,64.9461,295.1707,5.6082e-05,6.04e-06,0.0,0 STARLINK-3240,1 49728U 21115E   22256.03585988  .00000604  00000-0  56082-4 0  9998,2 49728  53.2156 116.7752 0001690  64.9461 295.1707 15.08831344 43116,6917.906999999997,95.438,540.941,538.6030000000002,0.0
49728.0,STARLINK-3240,PAYLOAD,2022-09-14 00:42:25,15.08841147,0.0001530999999999,53.2158,112.3142,69.2274,290.8882,-1.7664000000000002e-05,-5.69e-06,0.0,0 STARLINK-3240,1 49728U 21115E   22257.02945697 -.00000569  00000-0 -17664-4 0  9990,2 49728  53.2158 112.3142 0001531  69.2274 290.8882 15.08841147 44374,6917.877,95.437,540.8009999999998,538.683,0.0
49728.0,STARLINK-3240,PAYLOAD,2022-09-14 07:03:57,15.08844023,0.0001520999999999,53.2156,111.1249,68.3302,291.7852,-4.127e-05,-9.45e-06,0.0,0 STARLINK-3240,1 49728U 21115E   22257.29441549 -.00000945  00000-0 -41270-4 0  9994,2 49728  53.2156 111.1249 0001521  68.3302 291.7852 15.08844023 43303,6917.868,95.437,540.785,538.681,0.0
49728.0,STARLINK-3240,PAYLOAD,2022-09-15 13:16:17,15.08838633,0.0001205999999999,53.2164,105.4753,54.9849,305.1256,8.2179e-05,1.02e-05,0.0,0 STARLINK-3240,1 49728U 21115E   22258.55297758  .00001020  00000-0  82179-4 0  9991,2 49728  53.2164 105.4753 0001206  54.9849 305.1256 15.08838633 43493,6917.885,95.438,540.5840000000002,538.915,0.0
49728.0,STARLINK-3240,PAYLOAD,2022-09-15 18:02:26,15.08842229,0.0001527,53.2156,104.5837,58.3135,301.8006,0.00010965,1.458e-05,0.0,0 STARLINK-3240,1 49728U 21115E   22258.75169548  .00001458  00000-0  10965-3 0  9996,2 49728  53.2156 104.5837 0001527  58.3135 301.8006 15.08842229 44638,6917.874,95.437,540.795,538.682,0.0
49728.0,STARLINK-3240,PAYLOAD,2022-09-15 21:13:12,15.08844057,0.0001593,53.2158,103.9886,60.9596,299.1556,0.00012055,1.631e-05,0.0,0 STARLINK-3240,1 49728U 21115E   22258.88417425  .00001631  00000-0  12055-3 0  9995,2 49728  53.2158 103.9886 0001593  60.9596 299.1556 15.08844057 43549,6917.868,95.437,540.835,538.631,0.0
49728.0,STARLINK-3240,PAYLOAD,2022-09-16 17:53:14,15.08837275,0.0001636,53.2171,100.122,72.3743,287.7428,2.968e-05,1.84e-06,0.0,0 STARLINK-3240,1 49728U 21115E   22259.74530179  .00000184  00000-0  29680-4 0  9998,2 49728  53.2171 100.1220 0001636  72.3743 287.7428 15.08837275 43673,6917.889,95.438,540.885,538.622,0.0
49728.0,STARLINK-3240,PAYLOAD,2022-09-17 00:14:47,15.08831403,0.0001491,53.2162,98.9325,62.6528,297.4616,-7.5788e-05,-1.494e-05,0.0,0 STARLINK-3240,1 49728U 21115E   22260.01026978 -.00001494  00000-0 -75788-4 0  9994,2 49728  53.2162  98.9325 0001491  62.6528 297.4616 15.08831403 44827,6917.906999999997,95.438,540.803,538.74,0.0
49728.0,STARLINK-3240,PAYLOAD,2022-09-17 19:19:24,15.08836786,0.0001521999999999,53.2162,95.3643,60.608,299.5064,-1.1422e-05,-4.7e-06,0.0,0 STARLINK-3240,1 49728U 21115E   22260.80514686 -.00000470  00000-0 -11422-4 0  9997,2 49728  53.2162  95.3643 0001522  60.6080 299.5064 15.08836786 44949,6917.89,95.438,540.808,538.702,0.0
49728.0,STARLINK-3240,PAYLOAD,2022-09-17 20:54:47,15.08838517,0.0001695,53.216,95.0675,55.845,304.2702,1.9134e-05,1.6e-07,0.0,0 STARLINK-3240,1 49728U 21115E   22260.87138585  .00000016  00000-0  19134-4 0  9996,2 49728  53.2160  95.0675 0001695  55.8450 304.2702 15.08838517 43842,6917.885,95.438,540.923,538.577,0.0
49728.0,STARLINK-3240,PAYLOAD,2022-09-18 12:48:38,15.08846439,0.0001514,53.2164,92.0932,55.2966,304.8168,3.2027e-05,2.22e-06,0.0,0 STARLINK-3240,1 49728U 21115E   22261.53378195  .00000222  00000-0  32027-4 0  9998,2 49728  53.2164  92.0932 0001514  55.2966 304.8168 15.08846439 43940,6917.861,95.437,540.773,538.678,0.0
49728.0,STARLINK-3240,PAYLOAD,2022-09-18 19:10:11,15.0884334,0.0001496,53.2164,90.9037,58.1068,302.0069,0.00019649,2.841e-05,0.0,0 STARLINK-3240,1 49728U 21115E   22261.79873959  .00002841  00000-0  19649-3 0  9997,2 49728  53.2164  90.9037 0001496  58.1068 302.0069 15.08843340 43989,6917.87,95.437,540.77,538.7,0.0
49728.0,STARLINK-3240,PAYLOAD,2022-09-19 11:04:02,15.08840533,0.0001521999999999,53.216,87.9299,60.0592,300.0551,0.00016708,2.372e-05,0.0,0 STARLINK-3240,1 49728U 21115E   22262.46114346  .00002372  00000-0  16708-3 0  9992,2 49728  53.2160  87.9299 0001522  60.0592 300.0551 15.08840533 44082,6917.879,95.438,540.797,538.691,0.0
49728.0,STARLINK-3240,PAYLOAD,2022-09-19 17:25:35,15.08842822,0.0001564,53.2155,86.7407,58.6417,301.4728,0.00011181,1.492e-05,0.0,0 STARLINK-3240,1 49728U 21115E   22262.72610441  .00001492  00000-0  11181-3 0  9990,2 49728  53.2155  86.7407 0001564  58.6417 301.4728 15.08842822 44128,6917.871999999999,95.437,540.819,538.655,0.0
49728.0,STARLINK-3240,PAYLOAD,2022-09-20 12:30:12,15.08842032,0.0001607,53.2155,83.1714,63.8191,296.2966,-2.3292e-05,-6.59e-06,0.0,0 STARLINK-3240,1 49728U 21115E   22263.52098300 -.00000659  00000-0 -23292-4 0  9996,2 49728  53.2155  83.1714 0001607  63.8191 296.2966 15.08842032 44246,6917.874,95.437,540.851,538.627,0.0
49728.0,STARLINK-3240,PAYLOAD,2022-09-20 20:27:08,15.08840263,0.0001582,53.2162,81.6844,63.5611,296.5543,-2.082e-05,-6.19e-06,0.0,0 STARLINK-3240,1 49728U 21115E   22263.85218602 -.00000619  00000-0 -20820-4 0  9991,2 49728  53.2162  81.6844 0001582  63.5611 296.5543 15.08840263 45404,6917.88,95.438,540.839,538.65,0.0
49728.0,STARLINK-3240,PAYLOAD,2022-09-21 18:42:33,15.08835454,0.0001483,53.2161,77.521,60.8084,299.3056,-5.917e-05,-1.229e-05,0.0,0 STARLINK-3240,1 49728U 21115E   22264.77955002 -.00001229  00000-0 -59170-4 0  9993,2 49728  53.2161  77.5210 0001483  60.8084 299.3056 15.08835454 44436,6917.894,95.438,540.785,538.7330000000002,0.0
49728.0,STARLINK-3240,PAYLOAD,2022-09-22 04:14:51,15.0884169,0.0001331999999999,53.2163,75.7367,54.3382,305.7734,-7.695899999999999e-05,-1.513e-05,0.0,0 STARLINK-3240,1 49728U 21115E   22265.17698731 -.00001513  00000-0 -76959-4 0  9991,2 49728  53.2163  75.7367 0001332  54.3382 305.7734 15.08841690 45607,6917.875,95.437,540.6619999999998,538.819,0.0
49728.0,STARLINK-3240,PAYLOAD,2022-09-22 12:11:47,15.08831795,0.0001455,53.2166,74.25,56.7217,303.3914,0.0001048,1.3800000000000008e-05,0.0,0 STARLINK-3240,1 49728U 21115E   22265.50819086  .00001380  00000-0  10480-3 0  9992,2 49728  53.2166  74.2500 0001455  56.7217 303.3914 15.08831795 44543,6917.905,95.438,540.7769999999998,538.764,0.0
49728.0,STARLINK-3240,PAYLOAD,2022-09-22 18:33:20,15.08838612,0.0001443,53.2166,73.0607,55.8424,304.2704,7.8069e-05,9.55e-06,0.0,0 STARLINK-3240,1 49728U 21115E   22265.77314839  .00000955  00000-0  78069-4 0  9992,2 49728  53.2166  73.0607 0001443  55.8424 304.2704 15.08838612 44581,6917.885,95.438,540.748,538.751,0.0
49728.0,STARLINK-3240,PAYLOAD,2022-09-23 10:27:11,15.08836025,0.000151,53.2168,70.0874,56.5098,303.6038,0.00014156,1.965e-05,0.0,0 STARLINK-3240,1 49728U 21115E   22266.43554926  .00001965  00000-0  14156-3 0  9997,2 49728  53.2168  70.0874 0001510  56.5098 303.6038 15.08836025 44686,6917.893,95.438,540.802,538.7130000000002,0.0
49728.0,STARLINK-3240,PAYLOAD,2022-09-23 18:24:07,15.08831612,0.0001523,53.2168,68.6005,57.3384,302.7755,9.2421e-05,1.183e-05,0.0,0 STARLINK-3240,1 49728U 21115E   22266.76675528  .00001183  00000-0  92421-4 0  9999,2 49728  53.2168  68.6005 0001523  57.3384 302.7755 15.08831612 45848,6917.906,95.438,540.825,538.717,0.0
